{"type":"FeatureCollection","name":"France NUTS 2 — 2024","source":"Eurostat/GISCO NUTS 2024, 1:20M, EPSG:4326","source_url":"https://gisco-services.ec.europa.eu/distribution/v2/nuts/","features":[{"type":"Feature","properties":{"code":"FR10","name":"Ile-de-France"},"geometry":{"type":"MultiPolygon","coordinates":[[[[1.7044,49.2322],[1.7882,49.1781],[2.116,49.1989],[2.5905,49.0797],[3.0163,49.1132],[3.0719,49.1176],[3.4371,48.8828],[3.4852,48.8519],[3.4371,48.7966],[3.4148,48.771],[3.4371,48.7209],[3.4721,48.6418],[3.5556,48.6203],[3.4371,48.5124],[3.4052,48.4834],[3.4138,48.3801],[3.0726,48.3446],[3.0163,48.2698],[2.9363,48.1634],[2.5543,48.1451],[2.4027,48.3207],[1.9941,48.2866],[1.9688,48.3801],[1.9221,48.4576],[1.822,48.4738],[1.6177,48.6685],[1.5015,48.9411],[1.4835,49.0301],[1.6088,49.0779],[1.7044,49.2322]]]]}},{"type":"Feature","properties":{"code":"FRB0","name":"Centre — Val de Loire"},"geometry":{"type":"MultiPolygon","coordinates":[[[[1.5015,48.9411],[1.6177,48.6685],[1.822,48.4738],[1.9221,48.4576],[1.9688,48.3801],[1.9941,48.2866],[2.4027,48.3207],[2.5543,48.1451],[2.9363,48.1634],[3.0163,48.0933],[3.1188,48.0034],[3.0163,47.8138],[2.886,47.7372],[2.9765,47.5694],[2.8746,47.5204],[2.8925,47.3357],[2.9855,47.2405],[3.0163,47.1536],[3.0677,47.009],[3.0321,46.7949],[2.6958,46.7129],[2.5667,46.5514],[2.281,46.4204],[2.1678,46.4241],[1.7963,46.4368],[1.4152,46.3472],[1.1773,46.3839],[1.1356,46.4939],[0.935,46.5955],[0.8675,46.7482],[0.6708,46.9679],[0.3688,46.9476],[0.0538,47.1637],[0.2164,47.574],[0.23,47.6084],[0.3647,47.5839],[0.6144,47.6942],[0.6708,47.7604],[0.8346,47.9531],[0.8412,48.1031],[0.7977,48.1945],[0.7823,48.322],[0.9188,48.3801],[0.9478,48.521],[0.8148,48.6702],[1.1394,48.7753],[1.3061,48.7667],[1.5015,48.9411]]]]}},{"type":"Feature","properties":{"code":"FRC1","name":"Bourgogne"},"geometry":{"type":"MultiPolygon","coordinates":[[[[3.9155,47.941],[4.2934,47.9257],[4.7042,48.0202],[4.9491,47.8682],[4.9758,47.7115],[5.2656,47.5904],[5.3741,47.6045],[5.4765,47.5873],[5.4262,47.4457],[5.5185,47.3042],[5.2552,46.9799],[5.3964,46.8701],[5.3707,46.7798],[5.4222,46.6586],[5.3921,46.4787],[5.3106,46.4468],[5.1521,46.5053],[4.9455,46.498],[4.7802,46.1767],[4.663,46.2876],[4.4424,46.2925],[4.3881,46.2198],[4.3001,46.1743],[3.9873,46.1794],[3.8995,46.2759],[3.9808,46.3317],[3.9858,46.4487],[3.7595,46.5419],[3.6294,46.7495],[3.4885,46.673],[3.4371,46.6765],[3.194,46.6927],[3.0321,46.7949],[3.0677,47.009],[3.0163,47.1536],[2.9855,47.2405],[2.8925,47.3357],[2.8746,47.5204],[2.9765,47.5694],[2.886,47.7372],[3.0163,47.8138],[3.1188,48.0034],[3.0163,48.0933],[2.9363,48.1634],[3.0163,48.2698],[3.0726,48.3446],[3.4138,48.3801],[3.4371,48.3695],[3.5703,48.3087],[3.6407,48.1744],[3.7515,48.1441],[3.9155,47.941]]]]}},{"type":"Feature","properties":{"code":"FRC2","name":"Franche-Comté"},"geometry":{"type":"MultiPolygon","coordinates":[[[[6.6086,47.9268],[6.8235,47.8131],[6.8462,47.8229],[7.0178,47.7212],[7.1304,47.503],[6.9392,47.4337],[6.9379,47.3754],[7.0237,47.3318],[6.8589,47.1653],[6.4638,46.934],[6.46,46.8516],[6.4175,46.7586],[6.1381,46.5577],[6.064,46.4162],[5.902,46.2857],[5.777,46.2625],[5.6493,46.3176],[5.4611,46.2838],[5.3106,46.4468],[5.3921,46.4787],[5.4222,46.6586],[5.3707,46.7798],[5.3964,46.8701],[5.2552,46.9799],[5.5185,47.3042],[5.4262,47.4457],[5.4765,47.5873],[5.3741,47.6045],[5.4298,47.6673],[5.669,47.6898],[5.7178,47.8258],[5.8847,47.926],[6.1153,48.011],[6.2189,47.9425],[6.6086,47.9268]]]]}},{"type":"Feature","properties":{"code":"FRD1","name":"Basse-Normandie "},"geometry":{"type":"MultiPolygon","coordinates":[[[[-1.9253,49.7099],[-1.6127,49.6532],[-1.3248,49.6874],[-1.2474,49.6332],[-1.2845,49.5307],[-1.2277,49.4594],[-1.1196,49.3223],[-1.0792,49.3502],[-1.0184,49.3922],[-0.9328,49.3777],[-0.7966,49.3546],[-0.208,49.2857],[0.2164,49.4068],[0.2972,49.4299],[0.3992,49.1641],[0.4128,48.9506],[0.4249,48.9023],[0.6708,48.803],[0.7248,48.7812],[0.8148,48.6702],[0.9478,48.521],[0.9188,48.3801],[0.7823,48.322],[0.7977,48.1945],[0.6708,48.2281],[0.5399,48.2629],[0.3791,48.3801],[0.3549,48.4441],[0.2718,48.4789],[0.2164,48.4533],[-0.0532,48.3801],[-0.2183,48.5386],[-0.7613,48.4709],[-0.8604,48.5015],[-0.9328,48.5039],[-1.0702,48.5085],[-1.4246,48.4878],[-1.5711,48.6265],[-1.5123,48.6174],[-1.4746,48.6425],[-1.5925,48.8148],[-1.5629,48.9815],[-1.6144,49.1948],[-1.8309,49.4594],[-1.9253,49.7099]]]]}},{"type":"Feature","properties":{"code":"FRD2","name":"Haute-Normandie "},"geometry":{"type":"MultiPolygon","coordinates":[[[[1.7075,49.6988],[1.7139,49.4092],[1.7566,49.3004],[1.7044,49.2322],[1.6088,49.0779],[1.4835,49.0301],[1.5015,48.9411],[1.3061,48.7667],[1.1394,48.7753],[0.8148,48.6702],[0.7248,48.7812],[0.6708,48.803],[0.4249,48.9023],[0.4128,48.9506],[0.3992,49.1641],[0.2972,49.4299],[0.4013,49.446],[0.501,49.4781],[0.5835,49.4338],[0.621,49.4313],[0.5813,49.4381],[0.5061,49.486],[0.3851,49.4526],[0.2164,49.4511],[0.1222,49.4712],[0.0766,49.5217],[0.2164,49.7157],[0.5869,49.8491],[0.6708,49.8635],[1.0816,49.9339],[1.3796,50.0651],[1.6934,49.8922],[1.7838,49.7583],[1.7075,49.6988]]]]}},{"type":"Feature","properties":{"code":"FRE1","name":"Nord-Pas de Calais"},"geometry":{"type":"MultiPolygon","coordinates":[[[[2.648,50.825],[2.8643,50.7075],[3.0163,50.7745],[3.0985,50.779],[3.177,50.7562],[3.313,50.5212],[3.4371,50.5085],[3.6151,50.4904],[3.6555,50.4617],[3.7047,50.3265],[4.0278,50.3583],[4.0425,50.3398],[4.1939,50.2501],[4.1575,50.1699],[4.2065,50.0759],[4.1409,49.9788],[3.7407,50.0599],[3.4371,50.0339],[3.173,50.0113],[3.0903,50.0537],[3.0163,50.0507],[2.9021,50.046],[2.7384,50.1167],[2.4168,50.1021],[2.4398,50.2162],[2.1192,50.2077],[1.8286,50.3452],[1.6447,50.3504],[1.5664,50.4319],[1.5995,50.8621],[2.0677,51.0066],[2.5461,51.0894],[2.607,50.9127],[2.648,50.825]]]]}},{"type":"Feature","properties":{"code":"FRE2","name":"Picardie"},"geometry":{"type":"MultiPolygon","coordinates":[[[[1.8286,50.3452],[2.1192,50.2077],[2.4398,50.2162],[2.4168,50.1021],[2.7384,50.1167],[2.9021,50.046],[3.0163,50.0507],[3.0903,50.0537],[3.173,50.0113],[3.4371,50.0339],[3.7407,50.0599],[4.1409,49.9788],[4.2331,49.9578],[4.2064,49.7314],[4.042,49.6045],[4.048,49.4056],[3.6703,49.314],[3.6546,49.0075],[3.4852,48.8519],[3.4371,48.8828],[3.0719,49.1176],[3.0163,49.1132],[2.5905,49.0797],[2.116,49.1989],[1.7882,49.1781],[1.7044,49.2322],[1.7566,49.3004],[1.7139,49.4092],[1.7075,49.6988],[1.7838,49.7583],[1.6934,49.8922],[1.3796,50.0651],[1.5992,50.2133],[1.5552,50.3283],[1.6447,50.3504],[1.8286,50.3452]]]]}},{"type":"Feature","properties":{"code":"FRF1","name":"Alsace"},"geometry":{"type":"MultiPolygon","coordinates":[[[[8.2326,48.9666],[7.9596,48.7186],[7.8246,48.6114],[7.7318,48.3801],[7.6807,48.2573],[7.577,48.1191],[7.5773,48.1157],[7.6045,47.9689],[7.546,47.7436],[7.589,47.5899],[7.5552,47.5646],[7.5109,47.5026],[7.3809,47.4319],[7.2236,47.4302],[7.1304,47.503],[7.0178,47.7212],[6.8462,47.8229],[7.1983,48.3105],[7.108,48.3801],[7.1232,48.5136],[7.0813,48.5353],[7.2306,48.5757],[7.2894,48.7672],[7.2035,48.83],[7.0913,48.8242],[6.9724,48.9351],[7.0923,49.0312],[7.5324,48.945],[7.6357,49.054],[7.9107,49.0452],[8.0683,48.9993],[8.2326,48.9666]]]]}},{"type":"Feature","properties":{"code":"FRF2","name":"Champagne-Ardenne"},"geometry":{"type":"MultiPolygon","coordinates":[[[[4.81,49.9749],[4.8716,49.811],[4.9694,49.8018],[5.1537,49.7179],[5.3935,49.6171],[5.268,49.5544],[5.1092,49.5685],[5.0963,49.4018],[4.951,49.2369],[5.0275,49.0023],[4.9055,48.8308],[4.9884,48.6844],[5.4701,48.4209],[5.4359,48.3801],[5.681,48.2227],[5.6799,48.0944],[5.8847,47.926],[5.7178,47.8258],[5.669,47.6898],[5.4298,47.6673],[5.3741,47.6045],[5.2656,47.5904],[4.9758,47.7115],[4.9491,47.8682],[4.7042,48.0202],[4.2934,47.9257],[3.9155,47.941],[3.7515,48.1441],[3.6407,48.1744],[3.5703,48.3087],[3.4371,48.3695],[3.4138,48.3801],[3.4052,48.4834],[3.4371,48.5124],[3.5556,48.6203],[3.4721,48.6418],[3.4371,48.7209],[3.4148,48.771],[3.4371,48.7966],[3.4852,48.8519],[3.6546,49.0075],[3.6703,49.314],[4.048,49.4056],[4.042,49.6045],[4.2064,49.7314],[4.2331,49.9578],[4.4325,49.9416],[4.6634,49.995],[4.7967,50.1487],[4.8697,50.1288],[4.81,49.9749]]]]}},{"type":"Feature","properties":{"code":"FRF3","name":"Lorraine"},"geometry":{"type":"MultiPolygon","coordinates":[[[[5.3935,49.6171],[5.4707,49.4973],[5.7345,49.5458],[5.8181,49.5463],[5.8934,49.4969],[6.3671,49.4695],[6.557,49.4192],[6.7235,49.2188],[6.7794,49.1618],[6.9307,49.2162],[7.1011,49.156],[7.2499,49.1179],[7.3688,49.1615],[7.4787,49.1578],[7.6357,49.054],[7.5324,48.945],[7.0923,49.0312],[6.9724,48.9351],[7.0913,48.8242],[7.2035,48.83],[7.2894,48.7672],[7.2306,48.5757],[7.0813,48.5353],[7.1232,48.5136],[7.108,48.3801],[7.1983,48.3105],[6.8462,47.8229],[6.8235,47.8131],[6.6086,47.9268],[6.2189,47.9425],[6.1153,48.011],[5.8847,47.926],[5.6799,48.0944],[5.681,48.2227],[5.4359,48.3801],[5.4701,48.4209],[4.9884,48.6844],[4.9055,48.8308],[5.0275,49.0023],[4.951,49.2369],[5.0963,49.4018],[5.1092,49.5685],[5.268,49.5544],[5.3935,49.6171]]]]}},{"type":"Feature","properties":{"code":"FRG0","name":"Pays de la Loire"},"geometry":{"type":"MultiPolygon","coordinates":[[[[-0.2183,48.5386],[-0.0532,48.3801],[0.2164,48.4533],[0.2718,48.4789],[0.3549,48.4441],[0.3791,48.3801],[0.5399,48.2629],[0.6708,48.2281],[0.7977,48.1945],[0.8412,48.1031],[0.8346,47.9531],[0.6708,47.7604],[0.6144,47.6942],[0.3647,47.5839],[0.23,47.6084],[0.2164,47.574],[0.0538,47.1637],[-0.1021,47.0648],[-0.2899,47.0909],[-0.892,46.9758],[-0.7966,46.8607],[-0.6531,46.6798],[-0.5634,46.3815],[-0.7505,46.3043],[-0.9328,46.3126],[-1.0792,46.3193],[-1.2342,46.2866],[-1.7614,46.4752],[-1.9485,46.6714],[-2.023,46.7494],[-2.1432,46.8692],[-1.9805,47.0287],[-2.1687,47.1403],[-2.1885,47.2542],[-2.4737,47.2957],[-2.5133,47.3681],[-2.4585,47.448],[-2.1372,47.5257],[-2.097,47.6314],[-1.9485,47.6603],[-1.6843,47.7118],[-1.4626,47.8197],[-1.2459,47.7767],[-1.2382,47.81],[-1.0792,47.97],[-1.0387,48.0107],[-1.0528,48.1054],[-1.0702,48.5085],[-0.9328,48.5039],[-0.8604,48.5015],[-0.7613,48.4709],[-0.2183,48.5386]]],[[[-2.2393,47.0451],[-2.229,46.9565],[-2.316,46.9709],[-2.3467,47.0531],[-2.2393,47.0451]]]]}},{"type":"Feature","properties":{"code":"FRH0","name":"Bretagne"},"geometry":{"type":"MultiPolygon","coordinates":[[[[-3.1392,48.8495],[-2.7078,48.545],[-2.3671,48.6562],[-2.1238,48.6048],[-1.9485,48.681],[-1.761,48.6168],[-1.5711,48.6265],[-1.4246,48.4878],[-1.0702,48.5085],[-1.0528,48.1054],[-1.0387,48.0107],[-1.0792,47.97],[-1.2382,47.81],[-1.2459,47.7767],[-1.4626,47.8197],[-1.6843,47.7118],[-1.9485,47.6603],[-2.097,47.6314],[-2.1372,47.5257],[-2.4585,47.448],[-2.5635,47.5306],[-2.7193,47.5124],[-3.1392,47.6069],[-3.4293,47.7183],[-3.5259,47.8112],[-4.3563,47.8847],[-4.5118,48.0291],[-4.4314,48.1532],[-4.4787,48.2694],[-4.4252,48.3268],[-4.613,48.3578],[-4.696,48.4387],[-4.5917,48.5757],[-4.2464,48.6691],[-3.6592,48.6594],[-3.5125,48.8079],[-3.1392,48.8495]],[[-2.0069,48.5661],[-1.9684,48.5373],[-1.9629,48.5586],[-1.9722,48.5781],[-1.9908,48.5808],[-2.0069,48.5661]]],[[[-3.137,47.3019],[-3.2161,47.2913],[-3.3032,47.3666],[-3.1875,47.38],[-3.137,47.3019]]],[[[-4.7542,48.0193],[-4.8432,47.9906],[-4.9317,48.0388],[-4.8358,48.0807],[-4.7542,48.0193]]]]}},{"type":"Feature","properties":{"code":"FRI1","name":"Aquitaine"},"geometry":{"type":"MultiPolygon","coordinates":[[[[0.6708,45.6851],[0.796,45.5951],[1.0134,45.599],[1.2532,45.4442],[1.3031,45.3797],[1.2483,45.2833],[1.2715,45.1711],[1.4483,45.0193],[1.3943,44.8563],[1.0751,44.5773],[1.0227,44.5134],[1.0641,44.3785],[0.8951,44.355],[0.9311,44.2623],[0.8907,44.1667],[0.7419,44.0652],[0.6708,44.0564],[0.2164,44.0004],[0.076,43.9831],[0.0488,43.9252],[-0.0487,43.9619],[-0.1901,43.8981],[-0.2428,43.585],[-0.0968,43.5824],[-0.023,43.3516],[-0.1351,43.2793],[-0.0993,43.1833],[-0.2695,42.9892],[-0.3133,42.8494],[-0.5515,42.7962],[-0.6562,42.8594],[-0.7245,42.9202],[-0.7542,42.9603],[-0.7966,42.9585],[-0.9303,42.9892],[-1.4029,43.0641],[-1.4368,43.2513],[-1.7289,43.2961],[-1.786,43.3506],[-1.7455,43.3783],[-1.5248,43.5296],[-1.4404,43.656],[-1.3382,44.1012],[-1.2541,44.4676],[-1.1141,44.6847],[-1.2303,44.7953],[-1.1307,45.4876],[-1.0792,45.5176],[-0.9328,45.4206],[-0.7938,45.3284],[-0.7148,45.3284],[-0.4519,45.2739],[-0.24,45.1136],[-0.0402,45.1024],[0.0043,45.1916],[0.2164,45.276],[0.2959,45.4202],[0.6297,45.7146],[0.6708,45.6851]]]]}},{"type":"Feature","properties":{"code":"FRI2","name":"Limousin"},"geometry":{"type":"MultiPolygon","coordinates":[[[[2.281,46.4204],[2.5654,46.143],[2.5949,45.981],[2.4307,45.814],[2.4921,45.7377],[2.5084,45.4785],[2.4752,45.397],[2.3929,45.3875],[2.2183,45.2343],[2.0629,44.9765],[1.7791,44.9378],[1.6106,45.0316],[1.4483,45.0193],[1.2715,45.1711],[1.2483,45.2833],[1.3031,45.3797],[1.2532,45.4442],[1.0134,45.599],[0.796,45.5951],[0.6708,45.6851],[0.6297,45.7146],[0.6708,45.7489],[0.9224,45.9594],[0.8234,46.1286],[0.8696,46.2598],[1.1773,46.3839],[1.4152,46.3472],[1.7963,46.4368],[2.1678,46.4241],[2.281,46.4204]]]]}},{"type":"Feature","properties":{"code":"FRI3","name":"Poitou-Charentes"},"geometry":{"type":"MultiPolygon","coordinates":[[[[0.0538,47.1637],[0.3688,46.9476],[0.6708,46.9679],[0.8675,46.7482],[0.935,46.5955],[1.1356,46.4939],[1.1773,46.3839],[0.8696,46.2598],[0.8234,46.1286],[0.9224,45.9594],[0.6708,45.7489],[0.6297,45.7146],[0.2959,45.4202],[0.2164,45.276],[0.0043,45.1916],[-0.0402,45.1024],[-0.24,45.1136],[-0.4519,45.2739],[-0.7148,45.3284],[-0.7966,45.4714],[-0.9328,45.5446],[-1.2009,45.6953],[-1.3625,45.9695],[-1.2913,45.9888],[-1.1846,45.8374],[-1.1267,45.8658],[-1.0903,46.032],[-1.1864,46.1755],[-1.0792,46.3193],[-0.9328,46.3126],[-0.7505,46.3043],[-0.5634,46.3815],[-0.6531,46.6798],[-0.7966,46.8607],[-0.892,46.9758],[-0.2899,47.0909],[-0.1021,47.0648],[0.0538,47.1637]]],[[[-1.2206,46.176],[-1.3041,46.1264],[-1.4003,46.1664],[-1.2919,46.2168],[-1.2206,46.176]]]]}},{"type":"Feature","properties":{"code":"FRJ1","name":"Languedoc-Roussillon"},"geometry":{"type":"MultiPolygon","coordinates":[[[[3.4371,44.8816],[3.4736,44.8382],[3.6325,44.8666],[3.8625,44.7439],[3.9982,44.4598],[4.0849,44.3323],[4.2022,44.2844],[4.5103,44.3301],[4.6492,44.2704],[4.7971,44.0209],[4.7391,43.9241],[4.621,43.7064],[4.4899,43.6829],[4.2303,43.4602],[4.1011,43.5547],[3.4371,43.2909],[3.2405,43.2129],[3.0842,43.0436],[3.0477,42.8594],[3.0476,42.7466],[3.0475,42.5847],[3.174,42.4352],[3.0163,42.4491],[2.8844,42.4607],[2.5472,42.3433],[2.2404,42.4321],[2.04,42.3616],[1.9216,42.4517],[1.731,42.4924],[1.7258,42.5044],[1.7861,42.5737],[2.166,42.6639],[1.9787,42.7466],[1.9086,42.7776],[1.8845,42.8201],[1.9545,42.8594],[1.9546,42.9892],[1.9547,43.0944],[1.7355,43.1869],[1.6884,43.2736],[1.8613,43.4246],[2.0291,43.4369],[2.5657,43.4229],[2.6452,43.4702],[2.6492,43.638],[2.7927,43.6271],[2.9355,43.6947],[3.0163,43.7046],[3.1033,43.8221],[3.3584,43.9138],[3.4258,44.0131],[3.3367,44.0853],[3.3736,44.1708],[3.1687,44.2524],[3.1182,44.4576],[3.0163,44.5972],[2.9817,44.6447],[3.0163,44.7087],[3.0983,44.8601],[3.3613,44.9714],[3.4371,44.8816]]]]}},{"type":"Feature","properties":{"code":"FRJ2","name":"Midi-Pyrénées"},"geometry":{"type":"MultiPolygon","coordinates":[[[[1.6106,45.0316],[1.7791,44.9378],[2.0629,44.9765],[2.2075,44.6155],[2.4915,44.6686],[2.7273,44.9217],[2.86,44.8545],[2.9817,44.6447],[3.0163,44.5972],[3.1182,44.4576],[3.1687,44.2524],[3.3736,44.1708],[3.3367,44.0853],[3.4258,44.0131],[3.3584,43.9138],[3.1033,43.8221],[3.0163,43.7046],[2.9355,43.6947],[2.7927,43.6271],[2.6492,43.638],[2.6452,43.4702],[2.5657,43.4229],[2.0291,43.4369],[1.8613,43.4246],[1.6884,43.2736],[1.7355,43.1869],[1.9547,43.0944],[1.9546,42.9892],[1.9545,42.8594],[1.8845,42.8201],[1.9086,42.7776],[1.9787,42.7466],[2.166,42.6639],[1.7861,42.5737],[1.5382,42.6412],[1.4426,42.6037],[1.3461,42.7092],[1.1894,42.7466],[0.8582,42.8257],[0.7155,42.8435],[0.6803,42.7466],[0.6708,42.6797],[0.4777,42.7],[0.0108,42.697],[-0.1204,42.7466],[-0.3133,42.8494],[-0.2695,42.9892],[-0.0993,43.1833],[-0.1351,43.2793],[-0.023,43.3516],[-0.0968,43.5824],[-0.2428,43.585],[-0.1901,43.8981],[-0.0487,43.9619],[0.0488,43.9252],[0.076,43.9831],[0.2164,44.0004],[0.6708,44.0564],[0.7419,44.0652],[0.8907,44.1667],[0.9311,44.2623],[0.8951,44.355],[1.0641,44.3785],[1.0227,44.5134],[1.0751,44.5773],[1.3943,44.8563],[1.4483,45.0193],[1.6106,45.0316]]]]}},{"type":"Feature","properties":{"code":"FRK1","name":"Auvergne"},"geometry":{"type":"MultiPolygon","coordinates":[[[[3.4371,46.6765],[3.4885,46.673],[3.6294,46.7495],[3.7595,46.5419],[3.9858,46.4487],[3.9808,46.3317],[3.8995,46.2759],[3.808,46.2298],[3.8058,45.9991],[3.694,45.9307],[3.7165,45.781],[3.949,45.5374],[3.8974,45.3571],[4.2433,45.3795],[4.4831,45.2364],[4.3103,44.9965],[3.8625,44.7439],[3.6325,44.8666],[3.4736,44.8382],[3.4371,44.8816],[3.3613,44.9714],[3.0983,44.8601],[3.0163,44.7087],[2.9817,44.6447],[2.86,44.8545],[2.7273,44.9217],[2.4915,44.6686],[2.2075,44.6155],[2.0629,44.9765],[2.2183,45.2343],[2.3929,45.3875],[2.4752,45.397],[2.5084,45.4785],[2.4921,45.7377],[2.4307,45.814],[2.5949,45.981],[2.5654,46.143],[2.281,46.4204],[2.5667,46.5514],[2.6958,46.7129],[3.0321,46.7949],[3.194,46.6927],[3.4371,46.6765]]]]}},{"type":"Feature","properties":{"code":"FRK2","name":"Rhône-Alpes"},"geometry":{"type":"MultiPolygon","coordinates":[[[[5.3106,46.4468],[5.4611,46.2838],[5.6493,46.3176],[5.777,46.2625],[5.902,46.2857],[6.064,46.4162],[6.1455,46.3671],[6.1256,46.3172],[5.9561,46.1321],[6.2152,46.194],[6.261,46.2437],[6.2195,46.3119],[6.5044,46.4498],[6.8211,46.4272],[6.8181,46.1555],[7.0449,45.9224],[6.8024,45.7786],[6.9808,45.6275],[7.0119,45.512],[7.1047,45.4685],[7.1643,45.3994],[7.0944,45.2313],[6.6301,45.1099],[6.4323,45.0639],[6.2606,45.1268],[6.2224,45.0297],[6.3385,44.9637],[6.3366,44.869],[6.1347,44.8559],[5.8015,44.7068],[5.6423,44.6265],[5.6039,44.4839],[5.4536,44.4541],[5.4614,44.3633],[5.6401,44.2984],[5.676,44.1914],[5.4988,44.1157],[5.1702,44.2404],[4.9811,44.4107],[4.8968,44.3619],[4.8754,44.246],[4.6506,44.3298],[4.6492,44.2704],[4.5103,44.3301],[4.2022,44.2844],[4.0849,44.3323],[3.9982,44.4598],[3.8625,44.7439],[4.3103,44.9965],[4.4831,45.2364],[4.2433,45.3795],[3.8974,45.3571],[3.949,45.5374],[3.7165,45.781],[3.694,45.9307],[3.8058,45.9991],[3.808,46.2298],[3.8995,46.2759],[3.9873,46.1794],[4.3001,46.1743],[4.3881,46.2198],[4.4424,46.2925],[4.663,46.2876],[4.7802,46.1767],[4.9455,46.498],[5.1521,46.5053],[5.3106,46.4468]]]]}},{"type":"Feature","properties":{"code":"FRL0","name":"Provence-Alpes-Côte d’Azur"},"geometry":{"type":"MultiPolygon","coordinates":[[[[6.2606,45.1268],[6.4323,45.0639],[6.6301,45.1099],[6.7756,44.8997],[6.9882,44.8351],[7.0658,44.7135],[6.9484,44.6547],[6.8874,44.3613],[7.0234,44.2392],[7.3111,44.1383],[7.6617,44.1619],[7.7142,44.0615],[7.5236,43.891],[7.5299,43.784],[7.4406,43.7499],[7.4393,43.749],[7.4374,43.7516],[7.4134,43.7346],[7.4128,43.7317],[7.4104,43.7293],[7.4157,43.7259],[7.1873,43.6586],[6.9313,43.4803],[6.7448,43.3962],[6.6413,43.1811],[6.3452,43.1029],[5.9196,43.1095],[5.8321,43.0627],[5.6719,43.1793],[5.3683,43.2205],[5.3121,43.3443],[5.0825,43.3348],[4.9111,43.4206],[4.8452,43.358],[4.6364,43.3583],[4.5266,43.4419],[4.2303,43.4602],[4.4899,43.6829],[4.621,43.7064],[4.7391,43.9241],[4.7971,44.0209],[4.6492,44.2704],[4.6506,44.3298],[4.8754,44.246],[4.8968,44.3619],[4.9811,44.4107],[5.1702,44.2404],[5.4988,44.1157],[5.676,44.1914],[5.6401,44.2984],[5.4614,44.3633],[5.4536,44.4541],[5.6039,44.4839],[5.6423,44.6265],[5.8015,44.7068],[6.1347,44.8559],[6.3366,44.869],[6.3385,44.9637],[6.2224,45.0297],[6.2606,45.1268]]]]}},{"type":"Feature","properties":{"code":"FRM0","name":"Corse"},"geometry":{"type":"MultiPolygon","coordinates":[[[[9.4805,42.8594],[9.4612,42.6748],[9.5241,42.5442],[9.5556,42.1783],[9.4722,42.0046],[9.4022,41.8587],[9.361,41.578],[9.2073,41.3874],[8.8382,41.534],[8.8014,41.599],[8.8595,41.6782],[8.722,41.7486],[8.7828,41.8987],[8.6313,41.9201],[8.6783,42.0046],[8.7098,42.0614],[8.5849,42.1672],[8.6631,42.269],[8.5913,42.3751],[8.6891,42.525],[8.8273,42.6011],[9.1471,42.7275],[9.3053,42.7014],[9.3311,42.8594],[9.3472,42.9724],[9.4071,43.0014],[9.4805,42.8594]]]]}},{"type":"Feature","properties":{"code":"FRY1","name":"Guadeloupe"},"geometry":{"type":"MultiPolygon","coordinates":[[[[-61.4661,16.5061],[-61.2492,16.2773],[-61.5655,16.216],[-61.5731,16.0311],[-61.6905,15.9464],[-61.7736,16.0473],[-61.8224,16.2737],[-61.7409,16.3503],[-61.545,16.3133],[-61.4661,16.5061]]],[[[-61.1914,15.9181],[-61.2779,15.8687],[-61.358,15.9344],[-61.2683,15.9987],[-61.1914,15.9181]]],[[[-63.0192,18.0558],[-63.0883,18.0462],[-63.1003,18.0722],[-63.0522,18.0995],[-63.0192,18.0558]]]]}},{"type":"Feature","properties":{"code":"FRY2","name":"Martinique "},"geometry":{"type":"MultiPolygon","coordinates":[[[[-61.2553,14.7631],[-60.922,14.732],[-60.8059,14.4722],[-61.0647,14.4979],[-61.2553,14.7631]]]]}},{"type":"Feature","properties":{"code":"FRY3","name":"Guyane"},"geometry":{"type":"MultiPolygon","coordinates":[[[[-51.6243,4.201],[-51.6621,4.0654],[-52.3159,3.1769],[-52.5719,2.5205],[-52.9035,2.2137],[-53.1587,2.2107],[-53.3231,2.3073],[-53.5373,2.267],[-53.7825,2.3414],[-54.1605,2.1391],[-54.4347,2.2165],[-54.6003,2.3375],[-54.3924,2.4846],[-54.2393,2.74],[-54.1763,3.174],[-54.0078,3.5055],[-54.3367,4.0306],[-54.4414,4.4146],[-54.4703,4.8857],[-54.2992,5.2349],[-54.0541,5.494],[-54.0249,5.628],[-53.9677,5.7451],[-52.9227,5.4283],[-52.3906,4.9518],[-51.8274,4.6361],[-51.6243,4.201]]]]}},{"type":"Feature","properties":{"code":"FRY4","name":"La Réunion "},"geometry":{"type":"MultiPolygon","coordinates":[[[[55.2063,-21.0355],[55.2924,-20.9321],[55.4187,-20.8797],[55.6301,-20.909],[55.8256,-21.1675],[55.8081,-21.3213],[55.6426,-21.3895],[55.407,-21.3227],[55.2963,-21.232],[55.2063,-21.0355]]]]}},{"type":"Feature","properties":{"code":"FRY5","name":"Mayotte"},"geometry":{"type":"MultiPolygon","coordinates":[[[[45.0457,-12.7252],[45.1025,-12.677],[45.228,-12.7712],[45.2094,-12.9012],[45.1287,-12.9641],[45.0457,-12.7252]]]]}}]}
